{"epoch":1784710044,"count":18256,"objects":[{"id":"45446","name":"ONEWEB-0068","type":"PAYLOAD","l1":"1 45446U 20020Y   26202.41058586 -.00000145  00000-0 -44418-3 0  9992","l2":"2 45446  87.8894  14.2509 0001673  95.0460 265.0859 13.11414952307085"},{"id":"45447","name":"ONEWEB-0046","type":"PAYLOAD","l1":"1 45447U 20020Z   26202.47854378  .00000391  00000-0  10661-2 0  9995","l2":"2 45447  87.8889  14.2408 0001588  88.4912 271.6398 13.11416358307107"},{"id":"45448","name":"ONEWEB-0063","type":"PAYLOAD","l1":"1 45448U 20020AA  26202.43120902 -.00000471  00000-0 -13639-2 0  9990","l2":"2 45448  87.8899  14.2522 0001805  82.7060 277.4273 13.11417015307184"},{"id":"45449","name":"ONEWEB-0019","type":"PAYLOAD","l1":"1 45449U 20020AB  26202.46994490  .00000603  00000-0  16653-2 0  9999","l2":"2 45449  87.8893  14.2289 0002000  95.4390 264.6966 13.11416515307039"},{"id":"45450","name":"ONEWEB-0094","type":"PAYLOAD","l1":"1 45450U 20020AC  26202.37422836  .00000052  00000-0  10024-3 0  9996","l2":"2 45450  87.9162 359.0512 0001861 101.0387 259.0954 13.17649645310817"},{"id":"45451","name":"ONEWEB-0087","type":"PAYLOAD","l1":"1 45451U 20020AD  26201.98332681 -.00000176  00000-0 -53316-3 0  9991","l2":"2 45451  87.8908  14.3177 0001600  98.0354 262.0955 13.11418629307016"},{"id":"45452","name":"ONEWEB-0082","type":"PAYLOAD","l1":"1 45452U 20020AE  26202.43771217 -.00000351  00000-0 -10255-2 0  9994","l2":"2 45452  87.8900  14.2410 0001343  96.6675 263.4606 13.11418528307164"},{"id":"45453","name":"ONEWEB-0050","type":"PAYLOAD","l1":"1 45453U 20020AF  26202.51804562  .00001273  00000-0  12834-3 0  9992","l2":"2 45453  88.9276 228.5465 0003235 158.0653 202.0716 14.90484959345492"},{"id":"45454","name":"ONEWEB-0034","type":"PAYLOAD","l1":"1 45454U 20020AG  26202.01754465  .00000491  00000-0  13483-2 0  9995","l2":"2 45454  87.8897  14.3345 0001798  91.1527 268.9807 13.11415680307023"},{"id":"45455","name":"ONEWEB-0060","type":"PAYLOAD","l1":"1 45455U 20020AH  26202.43022507 -.00000471  00000-0 -13658-2 0  9991","l2":"2 45455  87.8891  14.2476 0001502 125.8378 234.2890 13.11417220307035"},{"id":"45456","name":"ONEWEB-0086","type":"PAYLOAD","l1":"1 45456U 20020AJ  26202.40889397  .00000114  00000-0  28577-3 0  9996","l2":"2 45456  87.8896  14.2499 0002056 114.1606 245.9737 13.11416052307093"},{"id":"45457","name":"ONEWEB-0088","type":"PAYLOAD","l1":"1 45457U 20020AK  26202.46328955  .00000540  00000-0  14883-2 0  9998","l2":"2 45457  87.8906  14.2144 0001591  79.8326 280.2982 13.11417788307037"},{"id":"47258","name":"ONEWEB-0102","type":"PAYLOAD","l1":"1 47258U 20100A   26202.66939912  .00000000  00000-0 -36659-4 0  9990","l2":"2 47258  87.8971 343.8186 0002097 102.3094 257.8269 13.12444836269257"},{"id":"47259","name":"ONEWEB-0109","type":"PAYLOAD","l1":"1 47259U 20100B   26202.37292327  .00000357  00000-0  95593-3 0  9996","l2":"2 47259  87.8980 343.8640 0002004  96.5438 263.5919 13.12444436269046"},{"id":"47260","name":"ONEWEB-0110","type":"PAYLOAD","l1":"1 47260U 20100C   26202.62874870  .00000271  00000-0  71728-3 0  9994","l2":"2 47260  87.8980 343.7973 0001918 107.0234 253.1105 13.12442204269246"},{"id":"47261","name":"ONEWEB-0111","type":"PAYLOAD","l1":"1 47261U 20100D   26202.35428435 -.00000231  00000-0 -67669-3 0  9994","l2":"2 47261  87.8978 343.8705 0001763  99.6246 260.5082 13.12444135269044"},{"id":"47262","name":"ONEWEB-0114","type":"PAYLOAD","l1":"1 47262U 20100E   26202.38478727  .00000519  00000-0  14083-2 0  9995","l2":"2 47262  87.8983 343.8628 0002039  94.4163 265.7199 13.12443011269007"},{"id":"47263","name":"ONEWEB-0117","type":"PAYLOAD","l1":"1 47263U 20100F   26202.37631685  .00000427  00000-0  11509-2 0  9997","l2":"2 47263  87.8979 343.8538 0001874  98.2619 261.8722 13.12443741269017"},{"id":"47264","name":"ONEWEB-0118","type":"PAYLOAD","l1":"1 47264U 20100G   26202.63890976 -.00000151  00000-0 -45610-3 0  9994","l2":"2 47264  87.8979 343.8045 0001877  87.5948 272.5395 13.12441518269240"},{"id":"47265","name":"ONEWEB-0119","type":"PAYLOAD","l1":"1 47265U 20100H   26202.66432028 -.00000134  00000-0 -40674-3 0  9994","l2":"2 47265  87.8969 343.8132 0001875  96.4265 263.7077 13.12443988269226"},{"id":"47266","name":"ONEWEB-0120","type":"PAYLOAD","l1":"1 47266U 20100J   26202.30699774  .00000512  00000-0  13867-2 0  9990","l2":"2 47266  87.8970 343.8858 0002057  95.4934 264.6430 13.12442892269203"},{"id":"47267","name":"ONEWEB-0121","type":"PAYLOAD","l1":"1 47267U 20100K   26202.37123155  .00000323  00000-0  86209-3 0  9994","l2":"2 47267  87.8979 343.8623 0001593 103.3579 256.7727 13.12443730269125"},{"id":"47268","name":"ONEWEB-0122","type":"PAYLOAD","l1":"1 47268U 20100L   26202.36530448  .00000073  00000-0  16757-3 0  9994","l2":"2 47268  87.8979 343.8686 0002034  98.9167 261.2191 13.12442964269032"},{"id":"47269","name":"ONEWEB-0123","type":"PAYLOAD","l1":"1 47269U 20100M   26202.36106162 -.00000046  00000-0 -16184-3 0  9993","l2":"2 47269  87.8968 343.8727 0001854  93.6064 266.5277 13.12444118269175"},{"id":"47270","name":"ONEWEB-0124","type":"PAYLOAD","l1":"1 47270U 20100N   26202.35089406 -.00000271  00000-0 -78745-3 0  9996","l2":"2 47270  87.8967 343.8772 0001749  98.5703 261.5624 13.12443657269058"},{"id":"47271","name":"ONEWEB-0125","type":"PAYLOAD","l1":"1 47271U 20100P   26202.63382005 -.00000006  00000-0 -52168-4 0  9997","l2":"2 47271  87.8981 343.8084 0001554  94.5548 265.5758 13.12441804269153"},{"id":"47272","name":"ONEWEB-0126","type":"PAYLOAD","l1":"1 47272U 20100Q   26202.65429910 -.00000349  00000-0 -10067-2 0  9997","l2":"2 47272  87.8973 343.8174 0001972  94.8502 265.2851 13.12443123269227"},{"id":"47273","name":"ONEWEB-0127","type":"PAYLOAD","l1":"1 47273U 20100R   26202.62027255  .00000433  00000-0  11674-2 0  9998","l2":"2 47273  87.8968 343.8214 0002023  97.1057 263.0301 13.12443068269242"},{"id":"47274","name":"ONEWEB-0128","type":"PAYLOAD","l1":"1 47274U 20100S   26202.33734064 -.00000272  00000-0 -79118-3 0  9991","l2":"2 47274  87.8966 343.8914 0001884 106.9120 253.2215 13.12442661269223"},{"id":"47275","name":"ONEWEB-0129","type":"PAYLOAD","l1":"1 47275U 20100T   26202.39326005  .00000389  00000-0  10469-2 0  9990","l2":"2 47275  87.8979 343.8573 0002900  88.7281 271.4179 13.12441953269161"}]}