OBJECT_NAME,OBJECT_ID,EPOCH,MEAN_MOTION,ECCENTRICITY,INCLINATION,RA_OF_ASC_NODE,ARG_OF_PERICENTER,MEAN_ANOMALY,EPHEMERIS_TYPE,CLASSIFICATION_TYPE,NORAD_CAT_ID,ELEMENT_SET_NO,REV_AT_EPOCH,BSTAR,MEAN_MOTION_DOT,MEAN_MOTION_DDOT
ONEWEB-0068,2020-020Y,2026-07-21T09:51:14.618304,13.11414952,.00016731,87.8894,14.2509,95.0460,265.0859,0,U,45446,999,30708,-.44418099E-3,-.145E-5,0
ONEWEB-0046,2020-020Z,2026-07-21T11:29:06.182592,13.11416358,.00015879,87.8889,14.2408,88.4912,271.6398,0,U,45447,999,30710,.10660599E-2,.391E-5,0
ONEWEB-0063,2020-020AA,2026-07-21T10:20:56.459328,13.11417015,.00018055,87.8899,14.2522,82.7060,277.4273,0,U,45448,999,30718,-.13638584E-2,-.471E-5,0
ONEWEB-0019,2020-020AB,2026-07-21T11:16:43.239360,13.11416515,.00019999,87.8893,14.2289,95.4390,264.6966,0,U,45449,999,30703,.16653056E-2,.603E-5,0
ONEWEB-0094,2020-020AC,2026-07-21T08:58:53.330304,13.17649645,.00018615,87.9162,359.0512,101.0387,259.0954,0,U,45450,999,31081,.10023628E-3,.52E-6,0
ONEWEB-0087,2020-020AD,2026-07-20T23:35:59.436384,13.11418629,.00016001,87.8908,14.3177,98.0354,262.0955,0,U,45451,999,30701,-.53315933E-3,-.176E-5,0
ONEWEB-0082,2020-020AE,2026-07-21T10:30:18.331488,13.11418528,.00013427,87.8900,14.2410,96.6675,263.4606,0,U,45452,999,30716,-.10254509E-2,-.351E-5,0
ONEWEB-0050,2020-020AF,2026-07-21T12:25:59.141568,14.90484959,.00032347,88.9276,228.5465,158.0653,202.0716,0,U,45453,999,34549,.12833833E-3,.1273E-4,0
ONEWEB-0034,2020-020AG,2026-07-21T00:25:15.857760,13.11415680,.00017981,87.8897,14.3345,91.1527,268.9807,0,U,45454,999,30702,.13483348E-2,.491E-5,0
ONEWEB-0060,2020-020AH,2026-07-21T10:19:31.446048,13.11417220,.00015017,87.8891,14.2476,125.8378,234.2890,0,U,45455,999,30703,-.13658404E-2,-.471E-5,0
ONEWEB-0086,2020-020AJ,2026-07-21T09:48:48.439008,13.11416052,.00020561,87.8896,14.2499,114.1606,245.9737,0,U,45456,999,30709,.28576952E-3,.114E-5,0
ONEWEB-0088,2020-020AK,2026-07-21T11:07:08.217120,13.11417788,.00015913,87.8906,14.2144,79.8326,280.2982,0,U,45457,999,30703,.14883277E-2,.54E-5,0
ONEWEB-0102,2020-100A,2026-07-21T16:03:56.083968,13.12444836,.00020972,87.8971,343.8186,102.3094,257.8269,0,U,47258,999,26925,-.36659103E-4,0,0
ONEWEB-0109,2020-100B,2026-07-21T08:57:00.570528,13.12444436,.00020043,87.8980,343.8640,96.5438,263.5919,0,U,47259,999,26904,.95593431E-3,.357E-5,0
ONEWEB-0110,2020-100C,2026-07-21T15:05:23.887680,13.12442204,.00019185,87.8980,343.7973,107.0234,253.1105,0,U,47260,999,26924,.71727918E-3,.271E-5,0
ONEWEB-0111,2020-100D,2026-07-21T08:30:10.167840,13.12444135,.0001763,87.8978,343.8705,99.6246,260.5082,0,U,47261,999,26904,-.67668769E-3,-.231E-5,0
ONEWEB-0114,2020-100E,2026-07-21T09:14:05.620128,13.12443011,.00020391,87.8983,343.8628,94.4163,265.7199,0,U,47262,999,26900,.14083234E-2,.519E-5,0
ONEWEB-0117,2020-100F,2026-07-21T09:01:53.775840,13.12443741,.00018743,87.8979,343.8538,98.2619,261.8722,0,U,47263,999,26901,.11508931E-2,.427E-5,0
ONEWEB-0118,2020-100G,2026-07-21T15:20:01.803264,13.12441518,.00018769,87.8979,343.8045,87.5948,272.5395,0,U,47264,999,26924,-.4560956E-3,-.151E-5,0
ONEWEB-0119,2020-100H,2026-07-21T15:56:37.272192,13.12443988,.00018751,87.8969,343.8132,96.4265,263.7077,0,U,47265,999,26922,-.40673761E-3,-.134E-5,0
ONEWEB-0120,2020-100J,2026-07-21T07:22:04.604736,13.12442892,.00020573,87.8970,343.8858,95.4934,264.6430,0,U,47266,999,26920,.1386667E-2,.512E-5,0
ONEWEB-0121,2020-100K,2026-07-21T08:54:34.405920,13.12443730,.00015927,87.8979,343.8623,103.3579,256.7727,0,U,47267,999,26912,.86209182E-3,.323E-5,0
ONEWEB-0122,2020-100L,2026-07-21T08:46:02.307072,13.12442964,.00020345,87.8979,343.8686,98.9167,261.2191,0,U,47268,999,26903,.16756573E-3,.73E-6,0
ONEWEB-0123,2020-100M,2026-07-21T08:39:55.723968,13.12444118,.00018536,87.8968,343.8727,93.6064,266.5277,0,U,47269,999,26917,-.16183934E-3,-.46E-6,0
ONEWEB-0124,2020-100N,2026-07-21T08:25:17.246784,13.12443657,.00017489,87.8967,343.8772,98.5703,261.5624,0,U,47270,999,26905,-.78744952E-3,-.271E-5,0
ONEWEB-0125,2020-100P,2026-07-21T15:12:42.052320,13.12441804,.00015542,87.8981,343.8084,94.5548,265.5758,0,U,47271,999,26915,-.52168228E-4,-.6E-7,0
ONEWEB-0126,2020-100Q,2026-07-21T15:42:11.442240,13.12443123,.00019722,87.8973,343.8174,94.8502,265.2851,0,U,47272,999,26922,-.10067134E-2,-.349E-5,0
ONEWEB-0127,2020-100R,2026-07-21T14:53:11.548320,13.12443068,.00020235,87.8968,343.8214,97.1057,263.0301,0,U,47273,999,26924,.11674283E-2,.433E-5,0
ONEWEB-0128,2020-100S,2026-07-21T08:05:46.231296,13.12442661,.00018845,87.8966,343.8914,106.9120,253.2215,0,U,47274,999,26922,-.79118241E-3,-.272E-5,0
ONEWEB-0129,2020-100T,2026-07-21T09:26:17.668320,13.12441953,.00028997,87.8979,343.8573,88.7281,271.4179,0,U,47275,999,26916,.10468547E-2,.389E-5,0
